[{"OBJECT_NAME":"SHIYAN-1 (SY-1)","OBJECT_ID":"2004-012A","EPOCH":"2026-03-09T17:40:34.066560","MEAN_MOTION":15.31043463,"ECCENTRICITY":0.00058726,"INCLINATION":97.8764,"RA_OF_ASC_NODE":140.5238,"ARG_OF_PERICENTER":23.6952,"MEAN_ANOMALY":336.4557,"EPHEMERIS_TYPE":0,"CLASSIFICATION_TYPE":"U","NORAD_CAT_ID":28220,"ELEMENT_SET_NO":999,"REV_AT_EPOCH":19586,"BSTAR":0.00054854449,"MEAN_MOTION_DOT":0.00016393,"MEAN_MOTION_DDOT":0},{"OBJECT_NAME":"STARLINK-35860","OBJECT_ID":"2025-283D","EPOCH":"2026-03-09T04:50:27.318912","MEAN_MOTION":15.30206831,"ECCENTRICITY":0.0001027,"INCLINATION":53.1627,"RA_OF_ASC_NODE":26.1336,"ARG_OF_PERICENTER":104.7371,"MEAN_ANOMALY":255.3743,"EPHEMERIS_TYPE":0,"CLASSIFICATION_TYPE":"U","NORAD_CAT_ID":66881,"ELEMENT_SET_NO":999,"REV_AT_EPOCH":1577,"BSTAR":0.001057389,"MEAN_MOTION_DOT":0.00031095,"MEAN_MOTION_DDOT":0}]
